{"type": "FeatureCollection", "features": [ {"type": "Feature", "properties": {"norad_id": 34077, "name": "IRIDIUM 33 DEB", "group": "iridium-33-debris", "lat": 79.44763597211622, "lon": 71.59529922895409, "alt_km": 664.6231174706118, "timestamp": "2025-12-12T03:50:52.802966+00:00", "meta": {"OBJECT_NAME": "IRIDIUM 33 DEB", "OBJECT_ID": "1997-051CL", "EPOCH": "2025-12-11T06:28:42.934368", "MEAN_MOTION": 14.64809818, "ECCENTRICITY": 0.00103779, "INCLINATION": 86.386, "RA_OF_ASC_NODE": 52.1546, "ARG_OF_PERICENTER": 44.2381, "MEAN_ANOMALY": 23.4753, "EPHEMERIS_TYPE": 0, "CLASSIFICATION_TYPE": "U", "NORAD_CAT_ID": 34077, "ELEMENT_SET_NO": 999, "REV_AT_EPOCH": 88311, "BSTAR": 0.0029385818, "MEAN_MOTION_DOT": 0.00015729, "MEAN_MOTION_DDOT": 0}, "tle": {"line1": "1 34077U 97051CL  25345.26994137  .00015729  00000+0  29386-2 0  9996", "line2": "2 34077  86.3860  52.1546 0010377  44.2381  23.4753 14.64809818883111"}}, "geometry": {"type": "Point", "coordinates": [71.59529922895409, 79.44763597211622]}}, {"type": "Feature", "properties": {"norad_id": 34079, "name": "IRIDIUM 33 DEB", "group": "iridium-33-debris", "lat": 32.713225513954335, "lon": 11.257374228999103, "alt_km": 612.679150763599, "timestamp": "2025-12-12T03:50:52.802977+00:00", "meta": {"OBJECT_NAME": "IRIDIUM 33 DEB", "OBJECT_ID": "1997-051CN", "EPOCH": "2025-12-11T12:15:30.000096", "MEAN_MOTION": 14.83481168, "ECCENTRICITY": 0.00057783, "INCLINATION": 86.3779, "RA_OF_ASC_NODE": 9.2208, "ARG_OF_PERICENTER": 12.3601, "MEAN_ANOMALY": 153.7042, "EPHEMERIS_TYPE": 0, "CLASSIFICATION_TYPE": "U", "NORAD_CAT_ID": 34079, "ELEMENT_SET_NO": 999, "REV_AT_EPOCH": 88959, "BSTAR": 0.0032219276, "MEAN_MOTION_DOT": 0.00026584, "MEAN_MOTION_DDOT": 0}, "tle": {"line1": "1 34079U 97051CN  25345.51076389  .00026584  00000+0  32219-2 0  9996", "line2": "2 34079  86.3779   9.2208 0005778  12.3601 153.7042 14.83481168889591"}}, "geometry": {"type": "Point", "coordinates": [11.257374228999103, 32.713225513954335]}}, {"type": "Feature", "properties": {"norad_id": 34088, "name": "IRIDIUM 33 DEB", "group": "iridium-33-debris", "lat": 71.89995087958513, "lon": -160.16376296528827, "alt_km": 585.6301632302984, "timestamp": "2025-12-12T03:50:52.802987+00:00", "meta": {"OBJECT_NAME": "IRIDIUM 33 DEB", "OBJECT_ID": "1997-051CX", "EPOCH": "2025-12-11T15:11:32.508096", "MEAN_MOTION": 14.91300656, "ECCENTRICITY": 0.00055827, "INCLINATION": 86.3846, "RA_OF_ASC_NODE": 31.2323, "ARG_OF_PERICENTER": 180.2413, "MEAN_ANOMALY": 338.3736, "EPHEMERIS_TYPE": 0, "CLASSIFICATION_TYPE": "U", "NORAD_CAT_ID": 34088, "ELEMENT_SET_NO": 999, "REV_AT_EPOCH": 88725, "BSTAR": 0.0039129178, "MEAN_MOTION_DOT": 0.00039169, "MEAN_MOTION_DDOT": 0}, "tle": {"line1": "1 34088U 97051CX  25345.63301514  .00039169  00000+0  39129-2 0  9990", "line2": "2 34088  86.3846  31.2323 0005582 180.2413 338.3736 14.91300656887251"}}, "geometry": {"type": "Point", "coordinates": [-160.16376296528827, 71.89995087958513]}}, {"type": "Feature", "properties": {"norad_id": 34091, "name": "IRIDIUM 33 DEB", "group": "iridium-33-debris", "lat": -46.612829820908914, "lon": 63.21783790069881, "alt_km": 608.3441207282112, "timestamp": "2025-12-12T03:50:52.802997+00:00", "meta": {"OBJECT_NAME": "IRIDIUM 33 DEB", "OBJECT_ID": "1997-051DA", "EPOCH": "2025-12-11T11:50:58.984800", "MEAN_MOTION": 14.81687233, "ECCENTRICITY": 0.00333541, "INCLINATION": 86.3408, "RA_OF_ASC_NODE": 67.4052, "ARG_OF_PERICENTER": 297.7713, "MEAN_ANOMALY": 62.0128, "EPHEMERIS_TYPE": 0, "CLASSIFICATION_TYPE": "U", "NORAD_CAT_ID": 34091, "ELEMENT_SET_NO": 999, "REV_AT_EPOCH": 87848, "BSTAR": 0.010203034, "MEAN_MOTION_DOT": 0.00081971, "MEAN_MOTION_DDOT": 0}, "tle": {"line1": "1 34091U 97051DA  25345.49373825  .00081971  00000+0  10203-1 0  9991", "line2": "2 34091  86.3408  67.4052 0033354 297.7713  62.0128 14.81687233878483"}}, "geometry": {"type": "Point", "coordinates": [63.21783790069881, -46.612829820908914]}}, {"type": "Feature", "properties": {"norad_id": 34097, "name": "IRIDIUM 33 DEB", "group": "iridium-33-debris", "lat": -61.22058085953891, "lon": -5.28508237487613, "alt_km": 758.1058446030429, "timestamp": "2025-12-12T03:50:52.803007+00:00", "meta": {"OBJECT_NAME": "IRIDIUM 33 DEB", "OBJECT_ID": "1997-051DG", "EPOCH": "2025-12-11T11:23:32.776224", "MEAN_MOTION": 14.34761782, "ECCENTRICITY": 0.00827273, "INCLINATION": 86.2006, "RA_OF_ASC_NODE": 1.966, "ARG_OF_PERICENTER": 6.3255, "MEAN_ANOMALY": 353.8964, "EPHEMERIS_TYPE": 0, "CLASSIFICATION_TYPE": "U", "NORAD_CAT_ID": 34097, "ELEMENT_SET_NO": 999, "REV_AT_EPOCH": 87101, "BSTAR": 0.0024034747, "MEAN_MOTION_DOT": 7.099e-05, "MEAN_MOTION_DDOT": 0}, "tle": {"line1": "1 34097U 97051DG  25345.47468491  .00007099  00000+0  24035-2 0  9997", "line2": "2 34097  86.2006   1.9660 0082727   6.3255 353.8964 14.34761782871014"}}, "geometry": {"type": "Point", "coordinates": [-5.28508237487613, -61.22058085953891]}}, {"type": "Feature", "properties": {"norad_id": 34145, "name": "IRIDIUM 33 DEB", "group": "iridium-33-debris", "lat": -13.801393054504882, "lon": 153.7173446172164, "alt_km": 761.1676002902759, "timestamp": "2025-12-12T03:50:52.803017+00:00", "meta": {"OBJECT_NAME": "IRIDIUM 33 DEB", "OBJECT_ID": "1997-051DY", "EPOCH": "2025-12-10T04:20:07.855008", "MEAN_MOTION": 14.42258512, "ECCENTRICITY": 0.0055658, "INCLINATION": 86.2123, "RA_OF_ASC_NODE": 333.6661, "ARG_OF_PERICENTER": 101.9259, "MEAN_ANOMALY": 258.8189, "EPHEMERIS_TYPE": 0, "CLASSIFICATION_TYPE": "U", "NORAD_CAT_ID": 34145, "ELEMENT_SET_NO": 999, "REV_AT_EPOCH": 87601, "BSTAR": 0.0015884, "MEAN_MOTION_DOT": 5.356e-05, "MEAN_MOTION_DDOT": 0}, "tle": {"line1": "1 34145U 97051DY  25344.18064647  .00005356  00000+0  15884-2 0  9999", "line2": "2 34145  86.2123 333.6661 0055658 101.9259 258.8189 14.42258512876012"}}, "geometry": {"type": "Point", "coordinates": [153.7173446172164, -13.801393054504882]}}, {"type": "Feature", "properties": {"norad_id": 34146, "name": "IRIDIUM 33 DEB", "group": "iridium-33-debris", "lat": 3.4142448938581116, "lon": 169.83451049702163, "alt_km": 719.1295563163649, "timestamp": "2025-12-12T03:50:52.803028+00:00", "meta": {"OBJECT_NAME": "IRIDIUM 33 DEB", "OBJECT_ID": "1997-051DZ", "EPOCH": "2025-12-11T11:10:04.073952", "MEAN_MOTION": 14.49036122, "ECCENTRICITY": 0.00253898, "INCLINATION": 86.284, "RA_OF_ASC_NODE": 350.3635, "ARG_OF_PERICENTER": 226.1164, "MEAN_ANOMALY": 287.3329, "EPHEMERIS_TYPE": 0, "CLASSIFICATION_TYPE": "U", "NORAD_CAT_ID": 34146, "ELEMENT_SET_NO": 999, "REV_AT_EPOCH": 88088, "BSTAR": 0.0016681289, "MEAN_MOTION_DOT": 6.375e-05, "MEAN_MOTION_DDOT": 0}, "tle": {"line1": "1 34146U 97051DZ  25345.46532493  .00006375  00000+0  16681-2 0  9999", "line2": "2 34146  86.2840 350.3635 0025389 226.1164 287.3329 14.49036122880880"}}, "geometry": {"type": "Point", "coordinates": [169.83451049702163, 3.4142448938581116]}}, {"type": "Feature", "properties": {"norad_id": 34159, "name": "IRIDIUM 33 DEB", "group": "iridium-33-debris", "lat": -85.01535020665159, "lon": 1.4608938786936212, "alt_km": 753.155263227688, "timestamp": "2025-12-12T03:50:52.803041+00:00", "meta": {"OBJECT_NAME": "IRIDIUM 33 DEB", "OBJECT_ID": "1997-051EN", "EPOCH": "2025-12-11T14:53:33.595008", "MEAN_MOTION": 14.38488957, "ECCENTRICITY": 0.0025992, "INCLINATION": 86.3509, "RA_OF_ASC_NODE": 48.7186, "ARG_OF_PERICENTER": 291.8319, "MEAN_ANOMALY": 68.0115, "EPHEMERIS_TYPE": 0, "CLASSIFICATION_TYPE": "U", "NORAD_CAT_ID": 34159, "ELEMENT_SET_NO": 999, "REV_AT_EPOCH": 87943, "BSTAR": 0.00059374897, "MEAN_MOTION_DOT": 1.839e-05, "MEAN_MOTION_DDOT": 0}, "tle": {"line1": "1 34159U 97051EN  25345.62052772  .00001839  00000+0  59375-3 0  9996", "line2": "2 34159  86.3509  48.7186 0025992 291.8319  68.0115 14.38488957879438"}}, "geometry": {"type": "Point", "coordinates": [1.4608938786936212, -85.01535020665159]}}, {"type": "Feature", "properties": {"norad_id": 34350, "name": "IRIDIUM 33 DEB", "group": "iridium-33-debris", "lat": -71.63335684418749, "lon": -8.095027653359239, "alt_km": 762.3185695340744, "timestamp": "2025-12-12T03:50:52.803052+00:00", "meta": {"OBJECT_NAME": "IRIDIUM 33 DEB", "OBJECT_ID": "1997-051ES", "EPOCH": "2025-12-11T12:10:25.711392", "MEAN_MOTION": 14.45383179, "ECCENTRICITY": 0.00227259, "INCLINATION": 86.3276, "RA_OF_ASC_NODE": 3.3421, "ARG_OF_PERICENTER": 139.0174, "MEAN_ANOMALY": 352.7891, "EPHEMERIS_TYPE": 0, "CLASSIFICATION_TYPE": "U", "NORAD_CAT_ID": 34350, "ELEMENT_SET_NO": 999, "REV_AT_EPOCH": 88275, "BSTAR": 0.00050102784, "MEAN_MOTION_DOT": 1.786e-05, "MEAN_MOTION_DDOT": 0}, "tle": {"line1": "1 34350U 97051ES  25345.50724203  .00001786  00000+0  50103-3 0  9992", "line2": "2 34350  86.3276   3.3421 0022725 139.0174 352.7891 14.45383179882755"}}, "geometry": {"type": "Point", "coordinates": [-8.095027653359239, -71.63335684418749]}}, {"type": "Feature", "properties": {"norad_id": 34366, "name": "IRIDIUM 33 DEB", "group": "iridium-33-debris", "lat": -57.94484761817042, "lon": -124.61557185968279, "alt_km": 721.4478676118797, "timestamp": "2025-12-12T03:50:52.803062+00:00", "meta": {"OBJECT_NAME": "IRIDIUM 33 DEB", "OBJECT_ID": "1997-051FJ", "EPOCH": "2025-12-11T05:33:55.951776", "MEAN_MOTION": 14.54036307, "ECCENTRICITY": 0.00222951, "INCLINATION": 86.3694, "RA_OF_ASC_NODE": 49.9688, "ARG_OF_PERICENTER": 144.5199, "MEAN_ANOMALY": 276.4662, "EPHEMERIS_TYPE": 0, "CLASSIFICATION_TYPE": "U", "NORAD_CAT_ID": 34366, "ELEMENT_SET_NO": 999, "REV_AT_EPOCH": 88160, "BSTAR": 0.0016787671, "MEAN_MOTION_DOT": 7.125e-05, "MEAN_MOTION_DDOT": 0}, "tle": {"line1": "1 34366U 97051FJ  25345.23189759  .00007125  00000+0  16788-2 0  9993", "line2": "2 34366  86.3694  49.9688 0022295 144.5199 276.4662 14.54036307881606"}}, "geometry": {"type": "Point", "coordinates": [-124.61557185968279, -57.94484761817042]}}]}